YAM-7                   
1 60504U 24149AN  26068.71799904  .00009009  00000+0  30984-3 0  9997
2 60504  97.3828 149.4631 0001973 296.5121  63.5918 15.30304554 86835
STARLINK-34766          
1 66505U 25263W   26068.16835736  .00033600  00000+0  12253-2 0  9997
2 66505  43.0014 353.2552 0001371 268.5653  91.5042 15.27571596 18826
